IRIDIUM 150             
1 43257U 18030J   25116.90915904  .00000088  00000+0  24532-4 0  9990
2 43257  86.3922 104.5085 0002344  96.1381 264.0082 14.34217893370494
IRIDIUM 143             
1 43258U 18030K   25117.02966840  .00000059  00000+0  14088-4 0  9993
2 43258  86.3925 104.5347 0002467 100.0819 260.0655 14.34217677370476
IRIDIUM 161             
1 43478U 18047C   25116.90664563  .00000788  00000+0  22823-3 0  9992
2 43478  86.4458 262.3742 0002119  89.1962 270.9481 14.43276598365090
IRIDIUM 152             
1 43479U 18047D   25117.49074936  .00000612  00000+0  21136-3 0  9999
2 43479  86.3933 261.9902 0002066  92.1632 267.9800 14.34225263362912
IRIDIUM 147             
1 43480U 18047E   25116.93896145  .00000454  00000+0  15520-3 0  9997
2 43480  86.3933 262.2188 0002209  89.4703 270.6746 14.34218292362825
IRIDIUM 110             
1 43481U 18047F   25116.94530265  .00000414  00000+0  14081-3 0  9994
2 43481  86.3937 262.2969 0001985  82.2675 277.8746 14.34217189362818
IRIDIUM 162             
1 43482U 18047G   25116.90033552  .00000460  00000+0  13062-3 0  9997
2 43482  86.4456 262.2727 0001871  91.4211 268.7205 14.43278407365081
IRIDIUM 160             
1 43569U 18061A   25116.89113911  .00000571  00000+0  19667-3 0  9995
2 43569  86.3995 230.6932 0002103  87.6108 272.5329 14.34217575353707
